[{"OBJECT_NAME":"NANOSATC-BR1","OBJECT_ID":"2014-033Q","EPOCH":"2026-03-09T23:35:03.168384","MEAN_MOTION":15.28136801,"ECCENTRICITY":0.00046435,"INCLINATION":98.0845,"RA_OF_ASC_NODE":92.7804,"ARG_OF_PERICENTER":147.6715,"MEAN_ANOMALY":212.4808,"EPHEMERIS_TYPE":0,"CLASSIFICATION_TYPE":"U","NORAD_CAT_ID":40024,"ELEMENT_SET_NO":999,"REV_AT_EPOCH":63881,"BSTAR":0.00074295057,"MEAN_MOTION_DOT":0.00020336,"MEAN_MOTION_DDOT":0},{"OBJECT_NAME":"STARLINK-34045","OBJECT_ID":"2025-099AD","EPOCH":"2026-03-09T08:05:00.764160","MEAN_MOTION":15.2759687,"ECCENTRICITY":0.00019093,"INCLINATION":43.0012,"RA_OF_ASC_NODE":174.6288,"ARG_OF_PERICENTER":276.8329,"MEAN_ANOMALY":83.2306,"EPHEMERIS_TYPE":0,"CLASSIFICATION_TYPE":"U","NORAD_CAT_ID":63979,"ELEMENT_SET_NO":999,"REV_AT_EPOCH":4723,"BSTAR":0.0010359065,"MEAN_MOTION_DOT":0.00028369,"MEAN_MOTION_DDOT":0}]
